{"fetched_at":"2026-07-20T18:28:52.300Z","source":"https://celestrak.org/NORAD/elements/gp.php?GROUP=oneweb&FORMAT=JSON","constellation":"oneweb","records":[{"OBJECT_NAME":"ONEWEB-0597","OBJECT_ID":"2022-166X","EPOCH":"2026-07-20T03:21:27.500832","CLASSIFICATION_TYPE":"U","MEAN_MOTION":13.21824428,"ECCENTRICITY":0.00019271,"INCLINATION":87.923,"RA_OF_ASC_NODE":237.4287,"ARG_OF_PERICENTER":94.4028,"MEAN_ANOMALY":265.7326,"EPHEMERIS_TYPE":0,"NORAD_CAT_ID":54663,"ELEMENT_SET_NO":999,"REV_AT_EPOCH":17589,"BSTAR":0.000062905976,"MEAN_MOTION_DOT":3.9e-7,"MEAN_MOTION_DDOT":0},{"OBJECT_NAME":"ONEWEB-0600","OBJECT_ID":"2022-166Y","EPOCH":"2026-07-20T02:54:49.733280","CLASSIFICATION_TYPE":"U","MEAN_MOTION":13.21826461,"ECCENTRICITY":0.0002012,"INCLINATION":87.9233,"RA_OF_ASC_NODE":237.4237,"ARG_OF_PERICENTER":101.1422,"MEAN_ANOMALY":258.9938,"EPHEMERIS_TYPE":0,"NORAD_CAT_ID":54664,"ELEMENT_SET_NO":999,"REV_AT_EPOCH":17586,"BSTAR":0.00014864643,"MEAN_MOTION_DOT":7.4e-7,"MEAN_MOTION_DDOT":0},{"OBJECT_NAME":"ONEWEB-0601","OBJECT_ID":"2022-166Z","EPOCH":"2026-07-20T02:42:42.368832","CLASSIFICATION_TYPE":"U","MEAN_MOTION":13.21825801,"ECCENTRICITY":0.00017539,"INCLINATION":87.923,"RA_OF_ASC_NODE":237.4412,"ARG_OF_PERICENTER":95.9085,"MEAN_ANOMALY":264.2249,"EPHEMERIS_TYPE":0,"NORAD_CAT_ID":54665,"ELEMENT_SET_NO":999,"REV_AT_EPOCH":17605,"BSTAR":0.000079427939,"MEAN_MOTION_DOT":4.6e-7,"MEAN_MOTION_DDOT":0},{"OBJECT_NAME":"ONEWEB-0602","OBJECT_ID":"2022-166AA","EPOCH":"2026-07-20T03:42:02.820384","CLASSIFICATION_TYPE":"U","MEAN_MOTION":13.21823516,"ECCENTRICITY":0.00019471,"INCLINATION":87.9228,"RA_OF_ASC_NODE":237.4388,"ARG_OF_PERICENTER":102.2039,"MEAN_ANOMALY":257.9314,"EPHEMERIS_TYPE":0,"NORAD_CAT_ID":54666,"ELEMENT_SET_NO":999,"REV_AT_EPOCH":17590,"BSTAR":-0.000089563531,"MEAN_MOTION_DOT":-2.4e-7,"MEAN_MOTION_DDOT":0},{"OBJECT_NAME":"ONEWEB-0603","OBJECT_ID":"2022-166AB","EPOCH":"2026-07-20T02:01:30.967680","CLASSIFICATION_TYPE":"U","MEAN_MOTION":13.21830489,"ECCENTRICITY":0.000196,"INCLINATION":87.9233,"RA_OF_ASC_NODE":237.4129,"ARG_OF_PERICENTER":91.128,"MEAN_ANOMALY":269.0078,"EPHEMERIS_TYPE":0,"NORAD_CAT_ID":54667,"ELEMENT_SET_NO":999,"REV_AT_EPOCH":17582,"BSTAR":-0.0033558282,"MEAN_MOTION_DOT":-0.00001373,"MEAN_MOTION_DDOT":0},{"OBJECT_NAME":"ONEWEB-0604","OBJECT_ID":"2022-166AC","EPOCH":"2026-07-20T03:33:33.786144","CLASSIFICATION_TYPE":"U","MEAN_MOTION":13.21824275,"ECCENTRICITY":0.00021137,"INCLINATION":87.9241,"RA_OF_ASC_NODE":237.4163,"ARG_OF_PERICENTER":96.5529,"MEAN_ANOMALY":263.5845,"EPHEMERIS_TYPE":0,"NORAD_CAT_ID":54668,"ELEMENT_SET_NO":999,"REV_AT_EPOCH":17579,"BSTAR":0.000077775562,"MEAN_MOTION_DOT":4.5e-7,"MEAN_MOTION_DDOT":0},{"OBJECT_NAME":"ONEWEB-0605","OBJECT_ID":"2022-166AD","EPOCH":"2026-07-20T03:23:52.478304","CLASSIFICATION_TYPE":"U","MEAN_MOTION":13.21824502,"ECCENTRICITY":0.00017462,"INCLINATION":87.9229,"RA_OF_ASC_NODE":237.428,"ARG_OF_PERICENTER":78.9829,"MEAN_ANOMALY":281.1501,"EPHEMERIS_TYPE":0,"NORAD_CAT_ID":54669,"ELEMENT_SET_NO":999,"REV_AT_EPOCH":17586,"BSTAR":0.00011108551,"MEAN_MOTION_DOT":5.9e-7,"MEAN_MOTION_DDOT":0},{"OBJECT_NAME":"ONEWEB-0606","OBJECT_ID":"2022-166AE","EPOCH":"2026-07-20T02:06:21.622464","CLASSIFICATION_TYPE":"U","MEAN_MOTION":13.21826062,"ECCENTRICITY":0.00021833,"INCLINATION":87.9229,"RA_OF_ASC_NODE":237.451,"ARG_OF_PERICENTER":98.0217,"MEAN_ANOMALY":262.1165,"EPHEMERIS_TYPE":0,"NORAD_CAT_ID":54670,"ELEMENT_SET_NO":999,"REV_AT_EPOCH":17591,"BSTAR":-0.000083668312,"MEAN_MOTION_DOT":-2.2e-7,"MEAN_MOTION_DDOT":0},{"OBJECT_NAME":"ONEWEB-0607","OBJECT_ID":"2022-166AF","EPOCH":"2026-07-20T03:06:56.255328","CLASSIFICATION_TYPE":"U","MEAN_MOTION":13.21826215,"ECCENTRICITY":0.00019309,"INCLINATION":87.9237,"RA_OF_ASC_NODE":237.416,"ARG_OF_PERICENTER":97.2762,"MEAN_ANOMALY":262.8591,"EPHEMERIS_TYPE":0,"NORAD_CAT_ID":54671,"ELEMENT_SET_NO":999,"REV_AT_EPOCH":17589,"BSTAR":0.00011465858,"MEAN_MOTION_DOT":6e-7,"MEAN_MOTION_DDOT":0},{"OBJECT_NAME":"ONEWEB-0608","OBJECT_ID":"2022-166AG","EPOCH":"2026-07-20T03:16:36.178176","CLASSIFICATION_TYPE":"U","MEAN_MOTION":13.21824188,"ECCENTRICITY":0.00016319,"INCLINATION":87.9241,"RA_OF_ASC_NODE":237.4123,"ARG_OF_PERICENTER":88.9967,"MEAN_ANOMALY":271.1354,"EPHEMERIS_TYPE":0,"NORAD_CAT_ID":54672,"ELEMENT_SET_NO":999,"REV_AT_EPOCH":17590,"BSTAR":0.00023663224,"MEAN_MOTION_DOT":0.00000111,"MEAN_MOTION_DDOT":0},{"OBJECT_NAME":"ONEWEB-0610","OBJECT_ID":"2022-166AH","EPOCH":"2026-07-20T02:47:33.500544","CLASSIFICATION_TYPE":"U","MEAN_MOTION":13.21826701,"ECCENTRICITY":0.00014514,"INCLINATION":87.923,"RA_OF_ASC_NODE":237.4271,"ARG_OF_PERICENTER":96.5252,"MEAN_ANOMALY":263.6047,"EPHEMERIS_TYPE":0,"NORAD_CAT_ID":54673,"ELEMENT_SET_NO":999,"REV_AT_EPOCH":17580,"BSTAR":0.000239623,"MEAN_MOTION_DOT":0.00000112,"MEAN_MOTION_DDOT":0},{"OBJECT_NAME":"ONEWEB-0611","OBJECT_ID":"2022-166AJ","EPOCH":"2026-07-20T02:37:49.993824","CLASSIFICATION_TYPE":"U","MEAN_MOTION":13.21825713,"ECCENTRICITY":0.00021474,"INCLINATION":87.9228,"RA_OF_ASC_NODE":237.4242,"ARG_OF_PERICENTER":95.3112,"MEAN_ANOMALY":264.8267,"EPHEMERIS_TYPE":0,"NORAD_CAT_ID":54674,"ELEMENT_SET_NO":999,"REV_AT_EPOCH":17579,"BSTAR":-0.00040250618,"MEAN_MOTION_DOT":-0.00000153,"MEAN_MOTION_DDOT":0},{"OBJECT_NAME":"ONEWEB-0612","OBJECT_ID":"2022-166AK","EPOCH":"2026-07-20T02:57:13.970304","CLASSIFICATION_TYPE":"U","MEAN_MOTION":13.21827173,"ECCENTRICITY":0.0001891,"INCLINATION":87.9245,"RA_OF_ASC_NODE":237.4212,"ARG_OF_PERICENTER":93.7563,"MEAN_ANOMALY":266.3787,"EPHEMERIS_TYPE":0,"NORAD_CAT_ID":54675,"ELEMENT_SET_NO":999,"REV_AT_EPOCH":17578,"BSTAR":0.00021030937,"MEAN_MOTION_DOT":0.000001,"MEAN_MOTION_DDOT":0},{"OBJECT_NAME":"ONEWEB-0615","OBJECT_ID":"2022-166AL","EPOCH":"2026-07-20T02:28:09.724512","CLASSIFICATION_TYPE":"U","MEAN_MOTION":13.21824107,"ECCENTRICITY":0.00022389,"INCLINATION":87.9232,"RA_OF_ASC_NODE":237.4363,"ARG_OF_PERICENTER":99.3641,"MEAN_ANOMALY":260.7746,"EPHEMERIS_TYPE":0,"NORAD_CAT_ID":54676,"ELEMENT_SET_NO":999,"REV_AT_EPOCH":17579,"BSTAR":0.000066179756,"MEAN_MOTION_DOT":4e-7,"MEAN_MOTION_DDOT":0},{"OBJECT_NAME":"ONEWEB-0655","OBJECT_ID":"2022-166AM","EPOCH":"2026-07-20T03:43:15.452544","CLASSIFICATION_TYPE":"U","MEAN_MOTION":13.21824205,"ECCENTRICITY":0.00019309,"INCLINATION":87.9229,"RA_OF_ASC_NODE":237.4269,"ARG_OF_PERICENTER":101.1374,"MEAN_ANOMALY":258.9978,"EPHEMERIS_TYPE":0,"NORAD_CAT_ID":54677,"ELEMENT_SET_NO":999,"REV_AT_EPOCH":17579,"BSTAR":-0.000072273064,"MEAN_MOTION_DOT":-1.7e-7,"MEAN_MOTION_DDOT":0},{"OBJECT_NAME":"ONEWEB-0659","OBJECT_ID":"2022-166AN","EPOCH":"2026-07-20T04:07:29.050464","CLASSIFICATION_TYPE":"U","MEAN_MOTION":13.21824339,"ECCENTRICITY":0.00021438,"INCLINATION":87.9234,"RA_OF_ASC_NODE":237.4235,"ARG_OF_PERICENTER":96.3621,"MEAN_ANOMALY":263.7757,"EPHEMERIS_TYPE":0,"NORAD_CAT_ID":54678,"ELEMENT_SET_NO":999,"REV_AT_EPOCH":17588,"BSTAR":-0.00018833102,"MEAN_MOTION_DOT":-6.5e-7,"MEAN_MOTION_DDOT":0}]}
