ONEWEB-0597             
1 54663U 22166X   26201.13990163  .00000039  00000+0  62906-4 0  9992
2 54663  87.9230 237.4287 0001927  94.4028 265.7326 13.21824428175890
ONEWEB-0600             
1 54664U 22166Y   26201.12140895  .00000074  00000+0  14865-3 0  9990
2 54664  87.9233 237.4237 0002012 101.1422 258.9938 13.21826461175868
ONEWEB-0601             
1 54665U 22166Z   26201.11299038  .00000046  00000+0  79428-4 0  9990
2 54665  87.9230 237.4412 0001753  95.9085 264.2249 13.21825801176051
ONEWEB-0602             
1 54666U 22166AA  26201.15419931 -.00000024  00000+0 -89564-4 0  9991
2 54666  87.9228 237.4388 0001947 102.2039 257.9314 13.21823516175903
ONEWEB-0603             
1 54667U 22166AB  26201.08438620 -.00001373  00000+0 -33558-2 0  9998
2 54667  87.9233 237.4129 0001960  91.1280 269.0078 13.21830489175821
ONEWEB-0604             
1 54668U 22166AC  26201.14830771  .00000045  00000+0  77776-4 0  9994
2 54668  87.9241 237.4163 0002113  96.5529 263.5845 13.21824275175798
ONEWEB-0605             
1 54669U 22166AD  26201.14157961  .00000059  00000+0  11109-3 0  9990
2 54669  87.9229 237.4280 0001746  78.9829 281.1501 13.21824502175869
ONEWEB-0606             
1 54670U 22166AE  26201.08775026 -.00000022  00000+0 -83668-4 0  9995
2 54670  87.9229 237.4510 0002183  98.0217 262.1165 13.21826062175911
ONEWEB-0607             
1 54671U 22166AF  26201.12981777  .00000060  00000+0  11466-3 0  9999
2 54671  87.9237 237.4160 0001930  97.2762 262.8591 13.21826215175894
ONEWEB-0608             
1 54672U 22166AG  26201.13652984  .00000111  00000+0  23663-3 0  9995
2 54672  87.9241 237.4123 0001631  88.9967 271.1354 13.21824188175900
ONEWEB-0610             
1 54673U 22166AH  26201.11635996  .00000112  00000+0  23962-3 0  9991
2 54673  87.9230 237.4271 0001451  96.5252 263.6047 13.21826701175802
ONEWEB-0611             
1 54674U 22166AJ  26201.10960641 -.00000153  00000+0 -40251-3 0  9996
2 54674  87.9228 237.4242 0002147  95.3112 264.8267 13.21825713175790
ONEWEB-0612             
1 54675U 22166AK  26201.12307836  .00000100  00000+0  21031-3 0  9995
2 54675  87.9245 237.4212 0001891  93.7563 266.3787 13.21827173175789
ONEWEB-0615             
1 54676U 22166AL  26201.10289033  .00000040  00000+0  66180-4 0  9990
2 54676  87.9232 237.4363 0002238  99.3641 260.7746 13.21824107175796
ONEWEB-0655             
1 54677U 22166AM  26201.15503996 -.00000017  00000+0 -72273-4 0  9999
2 54677  87.9229 237.4269 0001930 101.1374 258.9978 13.21824205175796
ONEWEB-0659             
1 54678U 22166AN  26201.17186401 -.00000065  00000+0 -18833-3 0  9994
2 54678  87.9234 237.4235 0002143  96.3621 263.7757 13.21824339175880
